Company_name,Address_headquarters_source_chatGPT,Latitude,Longitude,Carbon_bomb_connected,Country,World_region,Logo_URL
A-Property,"Moscow, Russia",55.755826,37.6173,"Elga Coal Mine,Sugodinsk-Ogodzhinsky Coal Mine",Russia,Europe,
AGL Energy Ltd,"200 George Street, Sydney, NSW, 2000, Australia",-33.8625031,151.2077978,Loy Yang Coal Mine,Australia,Oceania,
APA Corp,"2000 Post Oak Boulevard, Suite 100, Houston, Texas, USA",29.7445599,-95.4640712,"Austin Chalk Tight,Eagle Ford Shale,Permian Midland Tight",United States,North America,
Abraxas,"USA, Washington D.C.",38.9071923,-77.0368707,Permian Delaware Tight,United States,North America,
Abu Dhabi National Oil Company,"Al Mamoura A Building, Mohammed Bin Zayed City, Abu Dhabi, UAE",24.3477446,54.55326600000001,"Lower Zakum,Umm Shaif/Nasr,Upper Zakum",United Arab Emirates,Asia,https://www.adnoc.ae/-/media/Adnoc-v2/Images/Logo/adnoc-logo-updated.ashx?la=en&hash=7E6BA2973EF7B0D87F130C52C8D2FD97
Adani Group,"Adani House, Near Mithakhali Circle, Navrangpura, Ahmedabad, Gujarat, India",23.0332566,72.566549,Carmichael Coal Project,India,Asia,
Adaro Energy,"Menara Karya, 23rd Floor, Jl. H.R. Rasuna Said, Block X-5, Kav. 1-2, Jakarta 12950, Indonesia",-6.222582999999999,106.7355118,Tutupan Coal Mine,Indonesia,Asia,view-source:https://www.adaro.com/web/assets/common/images/logo-adaro-head.png
Aethon Energy,"USA, Washington D.C.",38.9071923,-77.0368707,Haynesville/Bossier Shale,United States,North America,
Ageron Energy,"1000 Potomac St, NW, Suite 300, Washington, DC 20007",38.9035335,-77.0652643,Eagle Ford Shale,United States,North America,
Aker BP ASA,"Oksenoyveien 10, Lysaker, Norway",59.9049698,10.6252488,Johan Sverdrup,Norway,Europe,https://en.wikipedia.org/wiki/Aker_ASA#/media/File:Aker_ASA.svg
Alliance Resource Partners LP,"1717 S Boulder Ave, Tulsa, OK 74119, USA",36.1376262,-95.9881529,Hamilton County Mine No.1,United States,North America,
Ameredev,"2901 Vía Fortuna # 600, Austin, TX 78746",0.0,0.0,Permian Delaware Tight,,,
Amplify Energy Corp,"500 Dallas Street, Suite 1700, Houston, Texas 77002, USA",29.7576539,-95.3705236,Haynesville/Bossier Shale,United States,North America,
Anadarko,"USA, Washington D.C.",38.9071923,-77.0368707,PRB Tight Oil,United States,North America,
Anhui Province Wanbei Coal-Electricity Group Co Ltd,"Beijing, China",39.904211,116.407395,"Kouzi East Coal Mine,Liuzhuang Coal Mine",China,Asia,
Anschutz Exploration Corporation,"USA, Washington D.C.",38.9071923,-77.0368707,PRB Tight Oil,United States,North America,
Antero Resources Corp,"1615 Wynkoop Street, Denver, Colorado 80202, USA",39.752448,-105.0011122,"Marcellus Shale,Utica Shale",United States,North America,
Arch Resources Inc,"One City Place Drive, Suite 300, St. Louis, MO 63141, USA",38.6726015,-90.4415002,Black Thunder Coal Mine,United States,North America,
Arsenal Resources,"USA, Washington D.C.",38.9071923,-77.0368707,Marcellus Shale,United States,North America,
Ascent Resources,"Oklahoma City, Oklahoma, USA",35.4675602,-97.5164276,Utica Shale,United States,North America,
Asian American Continental Coal Company,"Beijing, China",39.904211,116.407395,Gaohe Coal Mine,China,Asia,
Auterra Operating,"USA, Washington D.C.",38.9071923,-77.0368707,Eagle Ford Shale,United States,North America,
Avalon TX Operating,"USA, Washington D.C.",38.9071923,-77.0368707,Permian Midland Tight,United States,North America,
Azerbaijan (OCC) Limited,"Azerbaijan, Baku",40.40926169999999,49.8670924,ACG (Azeri-Chirag-Guneshli Deep Water),Azerbaijan,Asia,
BHP Group Ltd,"171 Collins Street, Melbourne, Victoria 3000, Australia",-37.8154778,144.9682824,"Blackwater Coal Mine,Goonyella-Riverside Coal Mine,Peak Downs Coal Mine,Red Hill Coal Project,Saraji East Coal Mine",Australia,Oceania,https://www.bhp.com/-/media/project/bhp1ip/bhp1ip-en/bhp-orange.png?iar=0&hash=337742FC8FA64974B77D26E658467170
BKV Operations,"USA, Washington D.C.",38.9071923,-77.0368707,Marcellus Shale,United States,North America,
BP PLC,"1 St. James's Square, London, SW1Y 4PD, United Kingdom",51.507727,-0.1346114,"ACG (Azeri-Chirag-Guneshli Deep Water),Haynesville/Bossier Shale,Johan Sverdrup,Rumaila North & South,Samotlorneftegaz (TNK-BP)",United Kingdom,Europe,https://www.bp.com/apps/settings/wcm/designs/refresh/bp/images/navigation/bp-logo.svg
BPX Operating,"USA, Washington D.C.",38.9071923,-77.0368707,"Eagle Ford Shale,Haynesville/Bossier Shale",United States,North America,
BRG Lone Star,"USA, Washington D.C.",38.9071923,-77.0368707,Barnett Shale,United States,North America,
BTA Oil Producers,"USA, Washington D.C.",38.9071923,-77.0368707,Permian Delaware Tight,United States,North America,
Balidor Oil & Gas,"USA, Washington D.C.",38.9071923,-77.0368707,PRB Tight Oil,United States,North America,
Ballard Petroleum Holding,"USA, Washington D.C.",38.9071923,-77.0368707,PRB Tight Oil,United States,North America,
Ballard Petroleum Holdings,"USA, Washington D.C.",38.9071923,-77.0368707,PRB Tight Oil,United States,North America,
Basra Oil Company,"Basra, Iraq",30.5257657,47.77379699999999,"Basrah Gas project,Halfayah,Majnoon,Nahr bin Umar,Ratawi,Rumaila North & South,Zubair",Iraq,Asia,https://en.wikipedia.org/wiki/Basra_Oil_Company#/media/File:Coat_of_arms_of_Iraq.svg
Bayan Resources Tbk PT,"Menara Bidakara 2, Jl. Jend. Gatot Subroto Kav. 71-73, Jakarta, Indonesia",-6.240633700000001,106.8409182,Pakar North Coal Mine,Indonesia,Asia,
Bayannaoer Zhuoyue Building Materials Company,"Beijing, China",39.904211,116.407395,Baijia Haizi Coal Mine,China,Asia,
Bayswater Operating,"USA, Washington D.C.",38.9071923,-77.0368707,"DJ Basin Tight Oil,Permian Midland Tight",United States,North America,
Bazhou Dongchen Industry and Trade Company,"Beijing, China",39.904211,116.407395,Talike District No. 2 Coal Mine,China,Asia,
Bedrock Production,"USA, Washington D.C.",38.9071923,-77.0368707,Barnett Shale,United States,North America,
Beijing Energy Holding Co Ltd,"China, Beijing",39.904211,116.407395,"Gaojialiang No.1 Coal Mine,Hongqingliang Coal Mine,Shengli East No.2 Coal Mine",China,Asia,https://www.bjei.com/Uploads/image/20200916/5f61c8f1747c4.png
Beijing Guotai Xinhua Industrial Company,"Beijing, China",39.904211,116.407395,Wucaiwan No.1 Coal Mine,China,Asia,
Beijing Jingneng Power Company,"Beijing, China",39.904211,116.407395,Suancigou Coal Mine,China,Asia,
Beijing Lirui Investment Company,"Beijing, China",39.904211,116.407395,Hongshaquan No.1 Coal Mine,China,Asia,
Beijing Sunshine Ruita Investment Consulting Company,"Beijing, China",39.904211,116.407395,Wenjiazhuang Coal Mine,China,Asia,
Bin County Coal Company,"Beijing, China",39.904211,116.407395,Yadian Coal Mine,China,Asia,http://www.bx-mt.com/storage/settings/December2019/v5lBG4ZumNOSgfAVI6ku.png
Binxian Coal Company,"Beijing, China",39.904211,116.407395,Dafosi Coal Mine,China,Asia,
Bison Oil & Gas,"USA, Washington D.C.",38.9071923,-77.0368707,DJ Basin Tight Oil,United States,North America,
Blackbeard Operating LLC,"USA, Washington D.C.",38.9071923,-77.0368707,Permian Delaware Tight,United States,North America,
Blackbrush,"USA, Washington D.C.",38.9071923,-77.0368707,"Austin Chalk Tight,Eagle Ford Shale",United States,North America,
Blue Dome,"USA, Washington D.C.",38.9071923,-77.0368707,Haynesville/Bossier Shale,United States,North America,
Bono Lithihi Investments Group,"Le Cap, South Africa",-33.9248685,18.4240553,Bernice-Cygnus Coal Mine,South Africa,Africa,
Bosque Texas Oil,"USA, Washington D.C.",38.9071923,-77.0368707,Woodford Shale,United States,North America,
Bright Rock Energy,"USA, Washington D.C.",38.9071923,-77.0368707,PRB Tight Oil,United States,North America,
Bulgarian Energy Holding EAD,"16 Veslets St., 1000 Sofia, Bulgaria",42.6997732,23.3257998,Maritsa Coal Mines,Bulgaria,Europe,
Bumi Resources,"Bakrie Tower, 3rd Floor, Rasuna Epicentrum, Jl. H.R. Rasuna Said, Jakarta, Indonesia",-6.219212,106.8344885,KPC Operation Coal Mine,Indonesia,Asia,http://www.bumiresources.com/assets/img/full-logo.png
CCI,"USA, Washington D.C.",38.9071923,-77.0368707,Haynesville/Bossier Shale,United States,North America,
CKD Mines,"Ottawa, Canada",45.4215296,-75.69719309999999,Gething Coal Mine,Canada,North America,
CLP Holdings Ltd,"8/F, Devon House, Taikoo Place, 979 King's Road, Quarry Bay, Hong Kong",22.2872229,114.2110848,Yallourn,China,Asia,https://www.clpgroup.com/content/dam/clp-group/system/images/site/logo-clp-dark-new.png
CML Exploration,"USA, Washington D.C.",38.9071923,-77.0368707,Austin Chalk Tight,United States,North America,
CNX Gas Co.,"USA, Washington D.C.",38.9071923,-77.0368707,"Marcellus Shale,Utica Shale",United States,North America,
Callon Petroleum Co,"2000 W Sam Houston Pkwy S, Houston, TX, USA",29.7456168,-95.5605794,Permian Midland Tight,United States,North America,
Canadian Natural Resources Ltd (CNRL),"2100, 855 - 2 Street SW, Calgary, AB, Canada T2P 4J8",51.0452615,-114.069437,Athabasca Oil Sands Project,Canada,North America,https://www.cnrl.com/assets/img/layout/cnrl-colour.svg
Capex SA,"Argentina, Buenos Aires",-34.6036844,-58.3815591,Vaca Muerta Shale,Argentina,South America,
Capitan Energy,"USA, Washington D.C.",38.9071923,-77.0368707,Permian Delaware Tight,United States,North America,
Carbon Creek Energy,"1662 S Sheridan Ave, Sheridan, WY 82801, USA",44.7822381,-106.9494733,PRB Tight Oil,United States,North America,
Changchun Jijun Trade Company,"Beijing, China",39.904211,116.407395,Shenhua Baorixile Surface Coal Mine,China,Asia,
Chesapeake Energy Corp,"USA, Washington D.C.",38.9071923,-77.0368707,"Eagle Ford Shale,Haynesville/Bossier Shale,Marcellus Shale,PRB Tight Oil",United States,North America,
Chevron Corp,"6001 Bollinger Canyon Rd, San Ramon, CA 94583, USA",37.7589028,-121.9598973,"Athabasca Oil Sands Project,DJ Basin Tight Oil,Haynesville/Bossier Shale,Karachaganak,Leviathan,Permian Delaware Tight,Permian Midland Tight,Tengiz,Vaca Muerta Shale",United States,North America,
China COSCO Shipping Corp Ltd,"No. 358, Dong Da Ming Road, Hongkou District, Shanghai, China",31.24589,121.49222,Kouzi East Coal Mine,China,Asia,
China Chengtong Holdings Group,"1 Fuxingmenwai Street, Xicheng District, Beijing, China",39.90735,116.34525,Dananhu No. 7 Coal Mine,China,Asia,http://www.cctgroup.com.cn/cctgroup/resource/cms/2017/10/logo.png
China Cinda Asset Management,"No. 8 Financial Street, Xicheng District, Beijing, China",39.900833,116.354103,"Dingji Coal Mine,Guqiao Coal Mine,Pangpangta Coal Mine,Shenhua Heidaigou Surface Coal Mine,Sihe Coal Mine,Tongxin Coal Mine,Zhangji Coal Mine,Zhong Yu Coal Mine",China,Asia,https://www.cinda.com.cn/resource/830/846/897/36117/36145/39057/39085/1431334955940382854857.gif
China Coal Xinji Energy Co Ltd,"No. 130, Yulan Road, High-tech Zone, Yulin, Shaanxi Province, China",37.7301063,110.1686347,"Anjialing Open-Pit Mine,Antaibao Surface Mine,Dahaize Coal Mine,Dananhu No. 7 Coal Mine,Hongqingliang Coal Mine,Hulusu Coal Mine,Kouzi East Coal Mine,Liuzhuang Coal Mine,Menkeqing Coal Mine,Muduchaideng Coal Mine,Nalin River No.2 Coal Mine,Pingshuo East Coal Mine,Shaqu No.1 Coal Mine,Wangjialing Coal Mine",China,Asia,https://xinji.chinacoal.com/picture/0/7c2cf20011814c9dac0f444ff36e4b96.png
China Construction Bank,"No. 25, Financial Street, Xicheng District, Beijing, China",39.9072426,116.3565767,Pangpangta Coal Mine,China,Asia,
China Datang Corp,"No. 9, Fuxingmenwai Street, Xicheng District, Beijing, China",39.90735,116.34525,"Longwanggou Coal Mine,Shengli East No.2 Coal Mine,Tashan Coal Mine",China,Asia,http://www.china-cdt.com/dtwz/dtwz_site/main/images/logo.jpg
China Development Bank,"No. 17 Financial Street, Xicheng District, Beijing, China",39.9072426,116.3565767,"Hongliulin Coal Mine,Mengcun Coal Mine,Sihe Coal Mine,Tambey Zone (Yamal Megaproject),Xiaozhuang Coal Mine",China,Asia,
China Energy Investment Corp Ltd,"8 Fuxingmenwai Street, Xicheng District, Beijing, China",39.90735,116.34525,"Baode Coal Mine,Buertai Coal Mine,Chagannur No.1 Coal Mine,Chahasu Coal Mine,Daliuta Coal Mine,Dananhu No. 7 Coal Mine,Dananhu No.1 Coal Mine,Dananhu West No.2 Coal Mine,Gaotouyao Coal Mine,Guojiawan Coal Mine,Guqiao Coal Mine,Haerwusu Surface Mine,Halagou Coal Mine,Huangyuchuan Coal Mine,Huojitu Well Of Daliuta Coal Mine,Jinjie Coal Mine,Kouzi East Coal Mine,Lijiahao Coal Mine,Liuzhuang Coal Mine,Meihuajing Coal Mine,Ningxia Hongliu Coal Mine,Qingshuiying Coal Mine,Sandaogou Coal Mine,Shahaiji No.1 Coal Mine,Shajihai No.2 Coal Mine,Shangwan Coal Mine,Shengli No.1 Open-Pit Coal Mine,Shenhua Baorixile Surface Coal Mine,Shenhua Bulianta Coal Mine,Shenhua Heidaigou Surface Coal Mine,Shicaocun Coal Mine,Shigetai Coal Mine,Taran Gaole Coal Mine,Tongxin Coal Mine,Weijiamao Open Pit Mine,Wudong Coal Mine,Xiwan Surface Coal Mine,Yangchangwan No.1 Well Coal Mine,Zaoquan Coal Mine,Zhangji Coal Mine,Zhundong Surface Mine",China,Asia,https://www.ceic.com/xhtml/newchn/images/logo.png
China Huadian Corp Ltd,"6 Fuxingmenwai Street, Xicheng District, Beijing, China",39.90735,116.34525,"Buliangou Coal Mine,Changcheng No.3 Coal Mine,Xiaojiawa Coal Mine,Xiaojihan Coal Mine",China,Asia,https://en.wikipedia.org/wiki/China_Huadian_Corporation#/media/File:China_Huadian_Corporation(CHD)_logo.svg
China Huaneng Group Co Ltd,"6 Fuxingmenwai Street, Xicheng District, Beijing, China",39.90735,116.34525,"Gaotouyao Coal Mine,Hetaoyu Coal Mine,Shengli No.1 Open-Pit Coal Mine,Weijiamao Open Pit Mine,Xinzhuang Coal Mine,Yimin Surface Coal Mine,Yuwang No.1 Coal Mine",China,Asia,https://www.chng.com.cn/cms-chng-theme/images/logo.png
China Huarong Asset Management Company,"8 Financial Street, Xicheng District, Beijing, China",39.9072426,116.3565767,Chagannur No.1 Coal Mine,China,Asia,
China Import-Export Bank,"30-31F, China EXIM Building, 30 Fuxingmennei Street, Xicheng District, Beijing, China",39.9057834,116.3642259,Tambey Zone (Yamal Megaproject),China,Asia,
China Investment Co,"Beijing, China",39.904211,116.407395,Tambey Zone (Yamal Megaproject),China,Asia,
China Kingho Energy Group,"No. 1, Qiyi Street, Urumqi, Xinjiang, China",43.8266299,87.61688,Qinghua No.7 Coal Mine,China,Asia,
China National Offshore Oil Corp (CNOOC),"Floor 10, CNOOC Building, 20 Chaoyangmenwai Dajie, Chaoyang District, Beijing, China",39.91807,116.43901,"Athabasca Oil Sands Project,Greater Turbot (Stabroek),Libra,Mero (Libra NW),Syncrude Mildred Lake/Aurora,Umm Shaif/Nasr",China,Asia,
China National Petroleum Corporation (CNPC),"9 Dongzhimen North Street, Dongcheng District, Beijing, 100007, P.R. China",39.94477,116.43399,"Azadegan,Changqing,Halfayah,Libra,Longmaxi Shale,Lower Zakum,Mero (Libra NW),Qurna West,Rumaila North & South,Shenhua Baorixile Surface Coal Mine,Tambey Zone (Yamal Megaproject),Tarim (CNPC),Umm Shaif/Nasr",China,Asia,http://www.cnpc.com.cn/cnpc/xhtml/images/logo.png
China Petrochemical Corporation (Sinopec Group),"No. 22 Chaoyangmen North Street, Chaoyang District, Beijing, China",39.925921,116.434638,"Athabasca Oil Sands Project,Hulusu Coal Mine,Longmaxi Shale (Sichuan/Changyu),Menkeqing Coal Mine,Shengli,Syncrude Mildred Lake/Aurora",China,Asia,
China Reform Holdings Company,"Beijing, China",39.904211,116.407395,Dananhu No. 7 Coal Mine,China,Asia,https://www.crhc.cn/lib/template/static/images/logo.png
China Securities Finance Corporation,"12F, Bldg. A, Fufengmenwai Street, Xicheng District, Beijing, China",39.90710989999999,116.37415,Weijiamao Open Pit Mine,China,Asia,
China ZhenHua Oil Co Ltd,"28 Xuanwumenwai Street, Xicheng District, Beijing, China",39.90710989999999,116.37415,Baghdad East,China,Asia,
Clear Fork,"USA, Washington D.C.",38.9071923,-77.0368707,Permian Midland Tight,United States,North America,
Coal India Ltd,"Coal Bhawan, Premise No-04 MAR, Plot No-AF-III, Action Area-1A, Newtown, Rajarhat, Kolkata, West Bengal, India",22.5841333,88.4512901,"Balaram Coal Mine,Dipka Coal Mine,Gevra Coal Mine,Integrated Belpahar, Lakhanpur, Lilari Coal Mine,Kaniha Coal Mine,Kusmunda Coal Mine,Lakhanpur Coal Mine,Rajmahal Coal Mine,Siarmal Coal Mine,Zambezi Coal Mine",India,Asia,https://www.coalindia.in/static/images/logo.af6a33b31873.png
Comstock Resources Inc,"5300 Town and Country Blvd, Frisco, TX 75034, USA",33.0908696,-96.8424073,Haynesville/Bossier Shale,United States,North America,
Confluence,"1125 17th Street, Suite 1550, Denver, CO, 80202",39.7489427,-104.994087,DJ Basin Tight Oil,United States,North America,
ConocoPhillips,"925 N Eldridge Pkwy, Houston, TX 77079, USA",29.7828141,-95.618465,"Austin Chalk Tight,Bakken Shale,Eagle Ford Shale,Permian Delaware Tight,QatarGas 1 LNG T1-T3,QatarGas LNG T12-T13 (NFE-South),Troll",United States,North America,https://fr.wikipedia.org/wiki/ConocoPhillips#/media/Fichier:ConocoPhillips_Logo.svg
Contango Resources,"717 Texas Ave #2900, Houston, TX 77002, USA",0.0,0.0,PRB Tight Oil,,,
Continental Resources Inc/OK,"20 N. Broadway, Oklahoma City, Oklahoma, 73102, USA",35.4674639,-97.5141062,"Bakken Shale,PRB Tight Oil",United States,North America,
Contura Energy,"340 Martin Luther King Jr Blvd, Bristol, TN 37620, USA",36.5910455,-82.1824523,Cumberland Coal Mine,United States,North America,https://alphametresources.com/wp-content/uploads/2022/01/Alpha_Full-Logo_RGB-1.png
Cooperative KazMunayGaz,"19 Kabanbay Batyr Ave., Nur-Sultan, Kazakhstan",51.1315976,71.4119486,Kashagan,Kazakhstan,Asia,https://www.kmg.kz/local/templates/main/assets/img/animate-logo.svg
Crescent Point Energy Corp,"2000, 585 - 8th Avenue SW, Calgary, Alberta, Canada",51.04549069999999,-114.0734226,Bakken Shale,Canada,North America,
Crownquest Operating,"2129 Private Rd C2300, Midland, TX 79705, USA",32.1045088,-102.0225595,Permian Midland Tight,United States,North America,
Delek Group Ltd,"19 Abba Eban Blvd. Herzliya, 46725, Israel",32.162413,34.844675,Leviathan,Israel,Asia,https://www.delek-group.com/wp-content/uploads/2017/09/delek-logo.png
Denbury Onshore,"5320 Legacy Dr, Plano, Texas, 75024, USA",33.074751,-96.8063353,PRB Tight Oil,United States,North America,
Devon Energy Corp,"333 West Sheridan Avenue, Oklahoma City, Oklahoma, 73102, USA",35.4669456,-97.5177149,"Austin Chalk Tight,Eagle Ford Shale,PRB Tight Oil,Permian Delaware Tight",United States,North America,
Diamondback E&P,"500 W Texas Ave #1200, Midland, TX 79701, USA",0.0,0.0,"Permian Delaware Tight,Permian Midland Tight",,,
Discovery Natural Resources LLC,"23770 TX-163, Barnhart, TX 76930, USA",31.2958891,-101.1617578,Permian Midland Tight,United States,North America,
Drummond Company,"PO Box 10246, Birmingham, AL 35202, USA",33.52,-86.8,"El Descanso Coal Mine,Pribbenow Coal Mine",United States,North America,https://dxh5c3.p3cdn1.secureserver.net/wp-content/themes/drummondco/assets/images/logo.png
EOG Resources Inc,"1111 Bagby, Sky Lobby 2, Houston, Texas, 77002, USA",29.758921,-95.3708024,"Austin Chalk Tight,Bakken Shale,Barnett Shale,DJ Basin Tight Oil,Eagle Ford Shale,PRB Tight Oil,Permian Delaware Tight,Utica Shale",United States,North America,
EQT Corp,"625 Liberty Avenue, Pittsburgh, Pennsylvania, 15222, USA",40.4424701,-80.0009554,"Marcellus Shale,Utica Shale",United States,North America,
EXCO Resources Inc,"12377 Merit Dr #1700, Dallas, TX 75251, USA",0.0,0.0,Marcellus Shale,,,
Eagleridge Operating,"3500 Maple Ave Suite 1400, Dallas, TX 75219, USA",32.8024266,-96.8115758,Barnett Shale,United States,North America,
Earthstone Operating,"24523 TX-OSR, Normangee, TX 77871, USA",31.05007019999999,-96.0741445,"Eagle Ford Shale,Permian Midland Tight",United States,North America,
El Toro Resources,"14301 Caliber Dr #200, Oklahoma City, OK 73134, USA",0.0,0.0,Austin Chalk Tight,,,
Electricity Generating PCL,"53 Moo 2, Poochaosamingprai Road, Tambon Bangkudtien, Bangkok, 10150, Thailand",13.6487154,100.5655156,Afşin-Elbistan Coal Mine,Thailand,Asia,
Elektroprivreda Srbije (EPS),"Carice Milice 2, 11000 Beograd, Serbia",44.8151186,20.4563956,Kolubara Mine Complex,Serbia,Europe,
Elevation Resources,"200 N Loraine St #1010, Midland, TX 79701, USA",0.0,0.0,Permian Midland Tight,,,
Elion Resources Group Ltd,"Canada, Ottawa",45.4215296,-75.69719309999999,Huangyuchuan Coal Mine,Canada,North America,
Endeavor Energy Resources LP,"110 N Marienfeld St Suite 400, Midland, TX 79701, USA",31.9981731,-102.0795213,Permian Midland Tight,United States,North America,
Enerplus Corp,"Suite 3000, 333 - 7th Avenue SW, Calgary, AB T2P 2Z1, Canada",51.046397,-114.069113,Bakken Shale,Canada,North America,
Eni SpA,"Piazzale Enrico Mattei, 1, 00144 Roma RM, Italy",41.8270511,12.4715209,"Basrah Gas project,Karachaganak,Kashagan,South Pars (Phases 4-5) dry gas,Umm Shaif/Nasr,Zubair",Italy,Europe,https://fr.wikipedia.org/wiki/Eni#/media/Fichier:Eni_SpA_(logo).svg
Equinor ASA,"Fornebuveien 50, 1366 Lysaker, Norway",59.9062766,10.6306979,"ACG (Azeri-Chirag-Guneshli Deep Water),Austin Chalk Tight,Eagle Ford Shale,Johan Sverdrup,Marcellus Shale,Shtokman,Troll",Norway,Europe,https://en.wikipedia.org/wiki/Equinor#/media/File:Equinor.svg
Erdenes MGL,"Ulaanbaatar 14240, Mongolia",47.88639879999999,106.9057439,Tavan Tolgoi Coal Mine,Mongolia,Asia,
Erdos Chunhui Forest Company,"Beijing, China",39.904211,116.407395,Hongshuliang Coal Mine,China,Asia,
Erdos Jiuyuan Investment Company,"Beijing, China",39.904211,116.407395,Inner Mongolia Erlintu Coal Mine,China,Asia,
Escondido Resources,"USA, Washington D.C.",38.9071923,-77.0368707,Austin Chalk Tight,United States,North America,
Evraz PLC,"5th Floor, 6 St Andrew Square, Edinburgh EH2 2AF, United Kingdom",55.9532764,-3.1932037,Raspadskaya Coal Mine,United Kingdom,Europe,"data:image/svg+xml;base64,PHN2ZyB3aWR0aD0iMjA2IiBoZWlnaHQ9IjMyIiB2aWV3Qm94PSIwIDAgMjA2IDMyIiBmaWxsPSJub25lIiB4bWxucz0iaHR0cDovL3d3dy53My5vcmcvMjAwMC9zdmciPgo8ZyBjbGlwLXBhdGg9InVybCgjY2xpcDBfMjYxOV81Nzk5KSI+CjxwYXRoIGQ9Ik0zMi4xODc1IDBIMFY2LjM5Nzg1SDMyLjE4NzVWMFoiIGZpbGw9IiNGQ0I1M0IiLz4KPHBhdGggZD0iTTMyLjE4NzUgMTIuNzk1N0gwVjE5LjE5MzZIMzIuMTg3NVYxMi43OTU3WiIgZmlsbD0iI0Y1N0YyOSIvPgo8cGF0aCBkPSJNMzIuMTg3NSAyNS41OTE0SDBWMzEuOTg5MkgzMi4xODc1VjI1LjU5MTRaIiBmaWxsPSIjRTMyMjEzIi8+CjxwYXRoIGQ9Ik0xNzguODM0IDBWNi4zODcxOUgxOTYuNjIzTDE3OC44NDQgMjUuNTkxNFYzMS45ODkzSDIwNlYyNS41OTE0SDE4Ny45NTRMMjA2IDYuMzk3ODVWMEgxNzguODM0WiIgZmlsbD0iYmxhY2siLz4KPHBhdGggZD0iTTE1OC45OTYgNi4zOTc4NUwxNjQuMDgxIDE5LjE4MjlIMTUzLjg5OUwxNTguOTk2IDYuMzk3ODVaTTE1NC4wNiAwTDE0MS43IDMxLjk4OTNIMTQ5LjA4MkwxNTEuNDk2IDI1LjU4MDdMMTY2LjQ4NCAyNS41OTE0TDE2OC44OTkgMzEuOTk5OUgxNzYuMjM3TDE2My4xNjkgMEgxNTQuMDZaIiBmaWxsPSJibGFjayIvPgo8cGF0aCBkPSJNMTAwLjQwNCAwTDkwLjk2MTkgMjMuMDMyM0w4MS45NzA4IDBINzMuOTc3Nkw4Ny40OTY0IDMxLjk4OTNIOTQuNTAyNUwxMDcuOTM1IDBIMTAwLjQwNFoiIGZpbGw9ImJsYWNrIi8+CjxwYXRoIGQ9Ik00NS4wNTE4IDBWMzEuOTg5M0g3MS40NjdWMjUuNTkxNEw1MS41MTA3IDI1LjU4MDhWMTkuMTkzNkg3MS40NjdWMTIuNzg1SDUxLjUxMDdWNi40MDg1Mkw3MS40NjcgNi4zODcxOVYwSDQ1LjA1MThaIiBmaWxsPSJibGFjayIvPgo8cGF0aCBkPSJNMTMxLjQ3NSAxOC41OTY1QzEzNS40MTMgMTcuMTU3IDEzNy44NyAxMy41NzQyIDEzNy44NyA5LjUwMDg5QzEzNy44NyA0LjI5NzMgMTMzLjQ3MSAwLjAxMDc0MjIgMTI4LjI2NyAwLjAxMDc0MjJIMTIzLjMxSDExMC41MVYzMkgxMTYuOTQ4VjE5LjE2MTZIMTI0LjU0NEwxMzEuNzY1IDMxLjk2OEgxMzkuNDlMMTMxLjQ3NSAxOC41OTY1Wk0xMjcuOTY3IDEyLjgwNjRIMTE2Ljk0OFY2LjUwNDU2SDEyNy45NjdDMTI5LjcxNiA2LjUwNDU2IDEzMS4xMzIgNy45MTIwOSAxMzEuMTMyIDkuNjUwMTdDMTMxLjEzMiAxMS4zODgzIDEyOS43MTYgMTIuODA2NCAxMjcuOTY3IDEyLjgwNjRaIiBmaWxsPSJibGFjayIvPgo8L2c+CjxkZWZzPgo8Y2xpcFBhdGggaWQ9ImNsaXAwXzI2MTlfNTc5OSI+CjxyZWN0IHdpZHRoPSIyMDYiIGhlaWdodD0iMzIiIGZpbGw9IndoaXRlIi8+CjwvY2xpcFBhdGg+CjwvZGVmcz4KPC9zdmc+Cg=="
Exco Operating Co.,"USA, Washington D.C.",38.9071923,-77.0368707,"Eagle Ford Shale,Haynesville/Bossier Shale",United States,North America,
Exxaro Resources Ltd,"The ConneXXion, 263B, West Avenue, Die Hoewes, Centurion, South Africa",-25.8532822,28.1895192,Grootegeluk Coal Mine,South Africa,Africa,https://www.exxaro.com/img/logo_light.svg
Exxon Mobil Corp,"5959 Las Colinas Blvd, Irving, TX 75039-2298, USA",32.889883,-96.950202,"Athabasca Oil Sands Project,Bakken Shale,Eagle Ford Shale,Greater Turbot (Stabroek),Haynesville/Bossier Shale,Kashagan,Marcellus Shale,Meramec Shale,Permian Delaware Tight,Permian Midland Tight,Qatargas 2 LNG T4-T5,Qurna West,Tengiz,Upper Zakum,Utica Shale,Vaca Muerta Shale",United States,North America,https://corporate.exxonmobil.com/-/media/global/icons/logos/exxonmobillogocolor2x.png
FDL Operating,"USA, Washington D.C.",38.9071923,-77.0368707,PRB Tight Oil,United States,North America,
Fasken Oil And Ranch,"USA, Washington D.C.",38.9071923,-77.0368707,"Permian Delaware Tight,Permian Midland Tight",United States,North America,
"Faulconer, Vernon E.","USA, Washington D.C.",38.9071923,-77.0368707,Barnett Shale,United States,North America,
Foresight Energy,"One Metropolitan Square, Suite 2600, St. Louis, MO 63102, USA",38.6275525,-90.1900027,MC #1 Coal Mine,United States,North America,https://www.foresight.com/wp-content/uploads/2015/10/foresight_energy-logo.jpg
Fude Life Insurance Company,"Beijing, China",39.904211,116.407395,Dalaihushuo Coal Mine,China,Asia,
Fugu State-Owned Asset Management and Operation Company,"Beijing, China",39.904211,116.407395,Guojiawan Coal Mine,China,Asia,
Futura Resources,"Canberra, Australia",-35.2809368,149.1300092,Wilton and Fairhill Coal Projects,Australia,Oceania,
GCM Resources,"7th Floor, 33 Cavendish Square, London, W1G 0PW, United Kingdom",51.5160119,-0.1441297,Phulbari Coal Mine,United Kingdom,Europe,http://www.gcmplc.com/sites/default/files/inline-images/logo.jpg
GHA Barnett,"USA, Washington D.C.",38.9071923,-77.0368707,Barnett Shale,United States,North America,
Galp Energia SGPS S.A.,"Rua Toms da Fonseca Torre C, 1600-209 Lisboa, Portugal",0.0,0.0,Lula (X-Tupi),,,
Gazprom PJSC,"16 Nametkina St., Moscow, Russian Federation, 117997",55.6603845,37.5588141,"Bovanenkovo Zone (Yamal Megaproject),Gazprom dobycha Nadym,Gazprom dobycha Orenburg,Gazprom dobycha Yamburg,Leningradskoye (Kara Sea),SeverEnergia Project,Shtokman,South Pars (Phases 2-3) dry gas,Urengoyskoye",Russia,Europe,https://en.wikipedia.org/wiki/Gazprom#/media/File:Gazprom-Logo.svg
Geopark Ltd,"Argentina, Buenos Aires",-34.6036844,-58.3815591,Vaca Muerta Shale,Argentina,South America,
Glencore PLC,"50 Berkeley Street, London W1J 8HD, United Kingdom",51.5078621,-0.143068,"Cerrejón Coal Mine,Hunter Valley North Coal Mine,Hunter Valley South Coal Mine,Paardekop Coal Mine,Valeria Coal Mine",United Kingdom,Europe,https://www.glencore.com/.resources/gc/webresources/img/Glencore_logo.svg
Golden Energy Mines,"Sinar Mas Land Plaza Tower II, 7th floor Jl. M.H. Thamrin No. 51, Jakarta, Indonesia",-6.1900923,106.8236452,BIB Coal Mine,Indonesia,Asia,https://www.goldenenergymines.com/wp-content/themes/gems/images/gems-logo.png
Government of India,"New Delhi, India",28.6139391,77.2090212,"Banhardih,Kerandari BC",India,Asia,https://en.wikipedia.org/wiki/Government_of_India#/media/File:Emblem_of_India.svg
Government of North Korea,"Pyongyang, North Korea",39.0737987,125.8197642,Saebyol Coal Mining Complex,North Korea,Asia,https://en.wikipedia.org/wiki/Government_of_North_Korea#/media/File:Emblem_of_North_Korea.svg
Greylock Production,"USA, Washington D.C.",38.9071923,-77.0368707,Marcellus Shale,United States,North America,
Guangda Holding Company,"Beijing, China",39.904211,116.407395,Shenhua Baorixile Surface Coal Mine,China,Asia,
Guangdong Hanjian Holding Co Ltd,"China, Beijing",39.904211,116.407395,Qingchunta Coal Mine,China,Asia,
Guangdong Hengjian Investment Holding Co Ltd,"China, Beijing",39.904211,116.407395,"Gaotouyao Coal Mine,Weijiamao Open Pit Mine",China,Asia,https://www.gdhjtz.com/uploadfiles/2020/10/20201009102249504.png?MjAyMDA5MDPmgZLlgaXmjqfogqHmoIfor4blrprnqL8oMSkucG5n
Guangdong Jinma Tourism Group,"Beijing, China",39.904211,116.407395,Shangyuquan Coal Mine,China,Asia,
Guanghui Energy Holding Company,"No.199, Kezhu Road, Guangzhou Science City, Guangzhou, China",23.15775,113.43803,Baishihu Surface Mine,China,Asia,
Guizhou Coalfield Geology Bureau,"Beijing, China",39.904211,116.407395,West Well of Faer Second Coal Mine,China,Asia,
Guizhou Panjiang Coal and Electricity Group,"Guiyang, Guizhou, China",26.6475899,106.63019,West Well of Faer Second Coal Mine,China,Asia,
Gulfport Energy Corp,"3001 Quail Springs Pkwy, Oklahoma City, OK 73134, USA",35.6145896,-97.5695333,"Marcellus Shale,Utica Shale",United States,North America,
Gulftex Energy,"USA, Washington D.C.",38.9071923,-77.0368707,"Austin Chalk Tight,Eagle Ford Shale",United States,North America,
HD Mining International,"Ottawa, Canada",45.4215296,-75.69719309999999,Murray River Coal Mine,Canada,North America,
HG Energy,"USA, Washington D.C.",38.9071923,-77.0368707,Marcellus Shale,United States,North America,
HKSCC Nominees Limited,"8/F, Two Exchange Square, 8 Connaught Place, Central, Hong Kong",22.2837763,114.1582256,"Anjialing Open-Pit Mine,Antaibao Surface Mine,Baode Coal Mine,Buertai Coal Mine,Daliuta Coal Mine,Haerwusu Surface Mine,Halagou Coal Mine,Huojitu Well Of Daliuta Coal Mine,Lijiahao Coal Mine,Pingshuo East Coal Mine,Shangwan Coal Mine,Shengli East No.2 Coal Mine,Shenhua Bulianta Coal Mine,Shigetai Coal Mine,Tashan Coal Mine,Wangjialing Coal Mine,Yuwang No.1 Coal Mine",China,Asia,https://www.hkex.com.hk/Market/home/media_20230505200119/logo_main.png?_20220126T073114Z
Hebei Construction & Investment Group Co Ltd,"China, Beijing",39.904211,116.407395,"Chahasu Coal Mine,Shengli East No.2 Coal Mine,Yuwang No.1 Coal Mine",China,Asia,
Hebei Weiyuan Group,"Beijing, China",39.904211,116.407395,Wangjiata Coal Mine,China,Asia,
Henry Resources,"USA, Washington D.C.",38.9071923,-77.0368707,Permian Midland Tight,United States,North America,
Hess Corporation,"1185 Avenue of the Americas, New York, NY 10036, USA",40.7578513,-73.98233809999999,"Bakken Shale,Greater Turbot (Stabroek)",United States,North America,
HighPeak Energy Inc,"USA, Washington D.C.",38.9071923,-77.0368707,Permian Midland Tight,United States,North America,
Hilcorp Energy Co,"USA, Washington D.C.",38.9071923,-77.0368707,Utica Shale,United States,North America,
Hillwood O & G Operating Co.,"USA, Washington D.C.",38.9071923,-77.0368707,Barnett Shale,United States,North America,
Hongchuang (Shenzhen) Investment Center,"China, Beijing",39.904211,116.407395,Wangjiata Coal Mine,China,Asia,
Huaihe Energy,"Beijing, China",39.904211,116.407395,"Dingji Coal Mine,Guqiao Coal Mine,Zhangji Coal Mine",China,Asia,http://www.wjwlg.com/uploadfiles/image/logo.png?bG9nby5wbmc=
Huayang New Material Technology Group Co Ltd,"China, Beijing",39.904211,116.407395,"Longwan Coal Mine,Qiyuan Coal Mine,Sijiazhuang Coal Mine,Yangquan No.1 Coal Mine",China,Asia,https://ru.wikipedia.org/wiki/Huayang_New_Material_Technology_Group#/media/%D0%A4%D0%B0%D0%B9%D0%BB:Yangquan_Coal_Industry_Group.png
Hubei Yihua Chemical Industry Co Ltd,"No. 30, Qingshan Road, Yichang, Hubei, China",31.05023,112.19398,Wucaiwan No.1 Surface Mine,China,Asia,"https://res.cloudinary.com/crunchbase-production/image/upload/c_lpad,h_256,w_256,f_auto,q_auto:eco,dpr_1/yxsbwt64aq7esl54mz7h"
Hunt Consolidated Inc,"1900 N. Akard Street, Dallas, TX 75201-2300, USA",32.7874845,-96.8024478,Bakken Shale,United States,North America,
Huolinhe Coal Industry Group,"Beijing, China",39.904211,116.407395,Baiyinhua No.3 Surface Mine,China,Asia,
ITOCHU Corp,"5-1, Kita-Aoyama 2-chome, Minato-ku, Tokyo, Japan",35.6715796,139.717307,Qurna West,Japan,Asia,
Impact Exploration & Production,"USA, Washington D.C.",38.9071923,-77.0368707,PRB Tight Oil,United States,North America,
Imperial Oil Resources Limited,"505 Quarry Park Blvd SE, Calgary, AB T2C 5N1, Canada",50.95963,-114.01382,"Athabasca Oil Sands Project,Syncrude Mildred Lake/Aurora",Canada,North America,
Indexim Coalindo,"Jakarta, Indonesia",-6.2087634,106.845599,Indexim Coalindo Coal Mine,Indonesia,Asia,
Indian Oil Corp Ltd,"IndianOil Bhavan, G-9, Ali Yavar Jung Marg, Bandra, East, Mumbai - 400051, India",19.0614046,72.84749769999999,Orinoco Joint Ventures,India,Asia,https://www.iocl.com/assets/images/logo.gif
Indika Energy Tbk PT,"Indika Energy Building, Jl. Jend. Sudirman Kav. 52-53, Jakarta, Indonesia",-6.2262521,106.806356,Pasir Coal Mine,Indonesia,Asia,
Indonesia Asahan Aluminium Persero PT,"Jl. MH Thamrin No. 2-4, Jakarta, Indonesia",-6.1863542,106.8238987,PTBA Coal Mines,Indonesia,Asia,https://www.inalum.id/themes/inalum/assets/images/Logo-Inalum-MIND-ID.png
Industrial Development Corporation,"19 Fredman Dr, Sandown, Sandton, Johannesburg, South Africa",-26.1027811,28.0527649,New Largo Coal Mine,South Africa,Africa,
Industrial and Commercial Bank of China,"55 Fuxingmennei Street, Xicheng District, Beijing, China",39.9073,116.36566,"Baiyinhua No.3 Surface Mine,Huangling No.2 Coal Mine",China,Asia,https://fr.wikipedia.org/wiki/Banque_industrielle_et_commerciale_de_Chine#/media/Fichier:Industrial_and_Commercial_Bank_of_China_(logo).svg
Inflection Energy,"USA, Washington D.C.",38.9071923,-77.0368707,Marcellus Shale,United States,North America,
Inner Mongolia Boyuan Holdings Group,"Beijing, China",39.904211,116.407395,"Muduchaideng Coal Mine,Nalin River No.2 Coal Mine",China,Asia,
Inner Mongolia Coal Field Geological Bureau,"Beijing, China",39.904211,116.407395,Hongqinghe Coal Mine,China,Asia,
Inner Mongolia Guanglian Minzu Economic Development Company,"Beijing, China",39.904211,116.407395,Hongqinghe Coal Mine,China,Asia,
Inner Mongolia Huineng Coal and Electricity Group,"Beijing, China",39.904211,116.407395,"Baijia Haizi Coal Mine,Inner Mongolia Erlintu Coal Mine",China,Asia,
Inner Mongolia Kaiyuan Shiye Group,"Beijing, China",39.904211,116.407395,Inner Mongolia Erlintu Coal Mine,China,Asia,
Inner Mongolia Mengtai Group Co Ltd,"China, Beijing",39.904211,116.407395,Buliangou Coal Mine,China,Asia,
Inner Mongolia Ordos Investment Holding Group,"Beijing, China",39.904211,116.407395,Baijia Haizi Coal Mine,China,Asia,
Inner Mongolia Shengli Resource Group,"Beijing, China",39.904211,116.407395,Hongshuliang Coal Mine,China,Asia,
Inner Mongolia Yitai Investment Co Ltd,"No. 1 Yitai Avenue, Yitai Industry Park, Ordos, Inner Mongolia, China",39.6084499,109.78087,"Hongqinghe Coal Mine,Suancigou Coal Mine,Talahao Coal Mine",China,Asia,
Inpex Corp,"Akasaka Biz Tower, 5-3-1 Akasaka, Minato-ku, Tokyo, Japan",35.673036,139.7363031,"ACG (Azeri-Chirag-Guneshli Deep Water),Lower Zakum,Upper Zakum",Japan,Asia,https://www.inpex.co.jp/english/common/img/hdr_logo01.png
Integrated Energy Services Corporation,"Washingthon, USA",47.7510741,-120.7401386,Mount Pleasant Coal Mine,United States,North America,
Iraqi Oil Exploration Company,"Baghdad, Iraq",33.315241,44.3660671,Qurna West,Iraq,Asia,https://www.oec.oil.gov.iq/assets/images/en/logo.png
JFE Steel,"1-1, Uchisaiwaicho 2-chome, Chiyoda-ku, Tokyo, Japan",35.671496,139.7578606,Byerwen Coal Mine,Japan,Asia,
JKLM Energy,"USA, Washington D.C.",38.9071923,-77.0368707,Utica Shale,United States,North America,
JSC Samruk-Kazyna,"8, Mangilik El avenue, Nur-Sultan, Kazakhstan",51.125086,71.436193,Kashagan,Kazakhstan,Asia,
Jagged Peak Energy,"USA, Washington D.C.",38.9071923,-77.0368707,Woodford Shale,United States,North America,
Jay-Bee Oil & Gas,"USA, Washington D.C.",38.9071923,-77.0368707,"Marcellus Shale,Utica Shale",United States,North America,
Jetta Permian,"USA, Washington D.C.",38.9071923,-77.0368707,Permian Delaware Tight,United States,North America,
Jiangsu Yueda Group,"Beijing, China",39.904211,116.407395,Huangling No.2 Coal Mine,China,Asia,
Jiaxing Dejian Investment Partnership,"Beijing, China",39.904211,116.407395,Jinjitan Coal Mine,China,Asia,
Jilin Province Coal Industry Group,"Beijing, China",39.904211,116.407395,Dalaihushuo Coal Mine,China,Asia,
Jinchengtai Limited Liability Company Of Chemical Industry of Ordos City,"Beijing, China",39.904211,116.407395,Shilawusu Coal Mine,China,Asia,
Jindal Group,"Jindal Centre, 12, Bhikaiji Cama Place, New Delhi, India",28.5691405,77.18643159999999,Chirodzi Coal Mine,India,Asia,
Jinneng Holding Group Co Ltd,"No. 1 Jinneng Road, Jinzhong, Shanxi, China",37.3582994,112.0082951,"Ba Leng Coal Mine,Dongzhouyao Coal Mine,Longwan Coal Mine,Madaotou Coal Mine,Majialiang Coal Mine,Sanjiao No.1 Coal Mine,Shangyuquan Coal Mine,Shanxi Dongda Coal Mine,Sihe Coal Mine,Tashan Coal Mine,Tongxin Coal Mine,Wenjiazhuang Coal Mine",China,Asia,https://en.wikipedia.org/wiki/Jinneng_Holding_Equipment_Manufacturing_Group#/media/File:Jincheng_Anthracite_Mining_Group_logo.jpg
Jiutai Energy,"Beijing, China",39.904211,116.407395,Shilawusu Coal Mine,China,Asia,
Jizhong Energy Group Co Ltd,"China, Beijing",39.904211,116.407395,Chagannur No.1 Coal Mine,China,Asia,
Joint Resources JSC,"Astana, Kazakhstan",51.1655126,71.4272222,Shubarkol Coal Mine,Kazakhstan,Asia,
Joint-Stock Company “Sovereign Wealth Fund “Samruk Kazyna”,,0.0,0.0,"Karachaganak,Tengiz",,,
Junggar Juli Cultivation Company,"Beijing, China",39.904211,116.407395,Hongshuliang Coal Mine,China,Asia,
KJ Energy,"USA, Washington D.C.",38.9071923,-77.0368707,Haynesville/Bossier Shale,United States,North America,
Kailuan Group Ltd Liability Corp,"China, Beijing",39.904211,116.407395,Hongshuliang Coal Mine,China,Asia,
Kaiser Francis Oil Co,"USA, Washington D.C.",38.9071923,-77.0368707,"DJ Basin Tight Oil,Permian Delaware Tight",United States,North America,
Kazakhmys Corporation,"104a, Abay Ave., Zhezkazgan, Kazakhstan",47.7909486,67.6798538,Borly Coal Mines,Kazakhstan,Asia,
Kinder Morgan Production Co.,"USA, Washington D.C.",38.9071923,-77.0368707,Permian Midland Tight,United States,North America,
Koda Resources Operating,"USA, Washington D.C.",38.9071923,-77.0368707,Bakken Shale,United States,North America,
Kolmar,"Moscow, Russia",55.755826,37.6173,Inaglinskaya-2 Mine,Russia,Europe,https://www.kolmargroup.com/wp-content/themes/kolmar/images/logo.svg
Korea Gas Corporation (KOGAS),"South Korea, Seoul",37.5518911,126.9917937,"Basrah Gas project,Zubair",South Korea,Asia,https://www.kogas.or.kr:9450/user/resources/images/hd_logo.png
Kraken Oil & Gas LLC,"USA, Washington D.C.",38.9071923,-77.0368707,Bakken Shale,United States,North America,
Kuwait Petroleum Corp,"P.O. Box 26565, Safat, Kuwait City, Kuwait",29.3715596,47.9736459,Khafji,Kuwait,Asia,https://en.wikipedia.org/wiki/Kuwait_Petroleum_Corporation#/media/File:Kuwait_Petroleum_Corporation_Logo.svg
LG International,"20 Yoido-dong, Youngdungpo-gu, Seoul, South Korea",37.5278847,126.9292303,GAM Coal Mine,South Korea,Asia,https://www.lg.com/lg5-common-gp/images/common/header/logo-b2c.jpg
LUKOIL PJSC,"11 Sretensky Boulevard, Moscow, 101000, Russia",55.76664580000001,37.6359498,"Karachaganak,Qurna West-2,Tengiz",Russia,Europe,https://fr.wikipedia.org/wiki/Lukoil#/media/Fichier:Lukoil_company_logo.svg
LX International,"Seoul, South Korea",37.5518911,126.9917937,Ensham Coal Mine,South Korea,Asia,
Langfang Heyuan Investment Center,"Beijing, China",39.904211,116.407395,Wangjiata Coal Mine,China,Asia,
Legacy Reserves Operating,"USA, Washington D.C.",38.9071923,-77.0368707,"Permian Delaware Tight,Permian Midland Tight",United States,North America,
Lime Rock Resources,"USA, Washington D.C.",38.9071923,-77.0368707,Barnett Shale,United States,North America,
Lu'an Chemical Group Co Ltd,"China, Beijing",39.904211,116.407395,"Gaohe Coal Mine,Shanxi Lu'an Gucheng Coal Mine",China,Asia,
Luen Mei Group,"Beijing, China",39.904211,116.407395,Longwanggou Coal Mine,China,Asia,
Lundin Energy AB,"Hovslagargatan 5, SE-111 48, Stockholm, Sweden",59.3297312,18.0779061,Johan Sverdrup,Sweden,Europe,http://www.lundin-energy.com/wp-content/uploads/2020/08/Lundin-220.svg
MC Mining,"The Place, 1 Sandton Drive, Sandown, Sandton, South Africa",-26.1102192,28.0494033,Greater Soutpansberg Coal Project,South Africa,Africa,
Magnolia Oil & Gas Operating,"USA, Washington D.C.",38.9071923,-77.0368707,"Austin Chalk Tight,Eagle Ford Shale",United States,North America,
Maharashtra State Power Generation Company Limited,,0.0,0.0,Gare Pelma Sector II,,,
Manshi Group,"Beijing, China",39.904211,116.407395,"Hulusu Coal Mine,Menkeqing Coal Mine",China,Asia,
Marathon Oil Corp,"5555 San Felipe Street, Houston, TX 77056-2723, USA",29.7493564,-95.4715705,"Austin Chalk Tight,Bakken Shale,Eagle Ford Shale",United States,North America,
Matador Production Company,"USA, Washington D.C.",38.9071923,-77.0368707,Permian Delaware Tight,United States,North America,
Medanito SA,"Argentina, Buenos Aires",-34.6036844,-58.3815591,Vaca Muerta Shale,Argentina,South America,
Mewbourne Oil Company,"USA, Washington D.C.",38.9071923,-77.0368707,Permian Delaware Tight,United States,North America,
Mineralogy,"Australia, Canberra",-35.2809368,149.1300092,Galilee Coal Mine,Australia,Oceania,
Minerals Development Company Botswana,"Private Bag 00422, Gaborone, Botswana",-24.6282079,25.9231471,Project Motheo,Botswana,Africa,
Ming Kei Energy Investment Company,"Beijing, China",39.904211,116.407395,Baiyanghe Coal Mine,China,Asia,
Ministry of Finance of Uzbekistan,"5 Mustaqillik Square, Tashkent 100008, Uzbekistan",41.3147075,69.268663,Angren Coal Mine,Uzbekistan,Asia,
Missan Oil Company,"Basra, Iraq",30.5257657,47.77379699999999,"Basrah Gas project,Zubair",Iraq,Asia,
Mitsubishi Corp,"2-3-1 Marunouchi, Chiyoda-ku, Tokyo 100-8086, Japan",35.6810703,139.7624611,"Blackwater Coal Mine,Goonyella-Riverside Coal Mine,Peak Downs Coal Mine,Red Hill Coal Project,Saraji East Coal Mine,Wards Well Coal Mine",Japan,Asia,https://www.mitsubishicorp.com/jp/en/cmn/img/st.png
Mitsui & Co. Ltd.,"Japan, Tokyo",35.6764225,139.650027,"QatarGas 1 LNG T1-T3,QatarGas LNG T12-T13 (NFE-South)",Japan,Asia,
Mubadala Investment Company,"Al Mamoura A Building, Mohammed Bin Zayed City, Abu Dhabi, UAE",24.3477446,54.55326600000001,Dolphin,United Arab Emirates,Asia,
Murchison Oil And Gas,"USA, Washington D.C.",38.9071923,-77.0368707,Permian Delaware Tight,United States,North America,
Murex Petroleum Corp,"15950 Dallas Pkwy Ste 600, Dallas, TX 75248, USA",32.9662108,-96.8206104,Bakken Shale,United States,North America,
Murphy E&P. Company,"9805 Katy Freeway, Houston, Texas 77024, USA",29.7833678,-95.5355636,"Austin Chalk Tight,Eagle Ford Shale",United States,North America,
NMDC,"Khanij Bhavan, Masab Tank, Hyderabad - 500028, India",17.3981214,78.45001660000001,Zambezi Coal Mine,India,Asia,
NTPC Ltd,"NTPC Bhawan, SCOPE Complex, Institutional Area, Lodhi Road, New Delhi - 110003, India",28.5867138,77.23772,Zambezi Coal Mine,India,Asia,
National Bank of the Republic of Kazakhstan,"21 ""K"" Kunayev str., 050051, Almaty, Kazakhstan",43.2572612,76.949915,Tengiz,Kazakhstan,Asia,
National Fuel Gas Co,"Houston Texas, USA",29.7604267,-95.3698028,Utica Shale,United States,North America,
National Iranian Oil Company,"Hafez Ave, Tehran, Iran",35.7021473,51.4127537,"Agha Jari,Ahwaz Asmari,Ahwaz Bangestan,Gachsaran,Kish Gas Project,Mansouri Bangestan,Marun,Pazanan,South Pars (Phases 20-21),South Pars (Phases 4-5) dry gas,South Pars (Phases 9-10) dry gas",Iran,Asia,https://en.wikipedia.org/wiki/File:National_Iranian_Oil_Company_logo.svg
National Oil Corporation (Libya),"Dat El Imad, Tower 2, Tripoli, Libya",32.8949912,13.1674648,El Sharara,Libya,Africa,
National Thermal Power Corporation,"SCOPE Complex, Institutional Area, Lodhi Road, New Delhi, India",28.5902496,77.2255836,"Mandakini B,Talaipalli Coal Mine",India,Asia,https://fr.wikipedia.org/wiki/National_Thermal_Power_Corporation#/media/Fichier:National_Thermal_Power_logo.svg
Navajo Nation,"Window Rock, AZ, United States",35.680573,-109.0525929,Youngs Creek Coal Mine,United States,North America,
Navigation Powder River,"USA, Washington D.C.",38.9071923,-77.0368707,PRB Tight Oil,United States,North America,
New Largo Employee & Community Trusts,"South Africa, Pretoria",-25.7478676,28.2292712,New Largo Coal Mine,South Africa,Africa,
Ningxia State-Owned Assets Company,"Beijing, China",39.904211,116.407395,Shicaocun Coal Mine,China,Asia,
Ningxia State-Owned Capital Operation Group,"Beijing, China",39.904211,116.407395,"Meihuajing Coal Mine,Ningxia Hongliu Coal Mine,Qingshuiying Coal Mine,Yangchangwan No.1 Well Coal Mine,Zaoquan Coal Mine",China,Asia,
Ningxia Wangwa Coal Industry Company,"Beijing, China",39.904211,116.407395,Wangwa Coal Mine,China,Asia,
Nippon Steel & Sumitomo Metal,"Tokyo, Japan",35.6764225,139.650027,Revuboe Coal Mine,Japan,Asia,
North Silo Resources,"USA, Washington D.C.",38.9071923,-77.0368707,DJ Basin Tight Oil,United States,North America,
Northeast Natural Energy LLC,"405 Capitol St Ste 1100, Charleston, WV 25301, USA",38.35176430000001,-81.6321064,Marcellus Shale,United States,North America,
Northwoods Operating,"USA, Washington D.C.",38.9071923,-77.0368707,PRB Tight Oil,United States,North America,
Novatek,"22a, Pobedy Street, Tarko-Sale, Purovsky District, Tyumen Region, 629850, Russia",64.91207779999999,77.7636861,Eastern Gas Program,Russia,Europe,
OMV AG,"Trabrennstra§e 6-8, 1020 Vienna, Austria",48.2138016,16.4145628,El Sharara,Austria,Europe,
Oakridge Oil And Gas,"USA, Washington D.C.",38.9071923,-77.0368707,Barnett Shale,United States,North America,
Occidental Petroleum Corp,"5 Greenway Plaza, Suite 110, Houston, TX 77046, USA",29.7305814,-95.4319063,"Dolphin,Permian Delaware Tight,Permian Midland Tight",United States,North America,
Octo Coal,"Moscow, Russia",55.755826,37.6173,Stepnoy Coal Mine,Russia,Europe,
Oil and Natural Gas Corporation Ltd (ONGC),"Deendayal Urja Bhavan, 5A, Nelson Mandela Marg, Vasant Kunj, New Delhi-110070, India",28.5441865,77.1580029,Lower Zakum,India,Asia,
Oil and Natural Gas Corporation of India,"Plot No. 5A- 5B, Nelson Mandela Road, Vasant Kunj, New Delhi, India",28.5440561,77.1571218,Orinoco Joint Ventures,India,Asia,
Olympus Energy,"5000 Stonewood Dr, Suite 400, Wexford, PA 15090, USA",40.6417611,-80.06427529999999,Marcellus Shale,United States,North America,
Ordos Energy Investment and Development Company,"Beijing, China",39.904211,116.407395,Gaojialiang No.1 Coal Mine,China,Asia,
Ovintiv Inc,"370 17th Street, Suite 1700, Denver, CO 80202, USA",39.7434762,-104.9886611,Permian Midland Tight,United States,North America,
PAO NOVATEK,"16A Tverskoy Boulevard, Moscow, Russia",55.7601771,37.6014202,Tambey Zone (Yamal Megaproject),Russia,Europe,
PC Venezuela LTD,"Caracas, Venezuela",10.4805937,-66.90360629999999,Orinoco Joint Ventures,Venezuela,South America,
PDVSA,"Av. Libertador, Edif. Petróleos de Venezuela, La Campiña, Caracas, Venezuela",10.4965556,-66.8724095,Orinoco Joint Ventures,Venezuela,South America,
POSCO Holdings Inc,"6261, Donghaean-ro, Nam-gu, Pohang, Gyeongsangbuk-do, South Korea",35.9983467,129.3822685,Revuboe Coal Mine,South Korea,Asia,
PPI,,0.0,0.0,South Pars (Phases 4-5) dry gas,,,
PPL Corp,"Two North Ninth Street, Allentown, PA 18101, USA",40.6081792,-75.4787477,South Pars (Phases 4-5) dry gas,United States,North America,
Pampa Energia SA,"Argentina, Buenos Aires",-34.6036844,-58.3815591,Vaca Muerta Shale,Argentina,South America,
Pan American Energy Group SL,"Argentina, Buenos Aires",-34.6036844,-58.3815591,Vaca Muerta Shale,Argentina,South America,
Peabody Energy Corp,"Peabody Plaza, 701 Market St, St. Louis, MO 63101-1826, USA",38.6264788,-90.1923897,North Antelope Rochelle Coal Mine,United States,North America,
Peak Powder River Resources,"USA, Washington D.C.",38.9071923,-77.0368707,PRB Tight Oil,United States,North America,
Pembroke Resources,"Level 28, 32 Turbot Street, Brisbane QLD 4000, Australia",-27.4688523,153.0205552,Olive Downs Coal Mine,Australia,Oceania,
Pennenergy Resources,"USA, Washington D.C.",38.9071923,-77.0368707,"Marcellus Shale,Utica Shale",United States,North America,
Permian Deep Rock Oil Co.,"USA, Washington D.C.",38.9071923,-77.0368707,Permian Midland Tight,United States,North America,
Pertamina Persero PT,"Jl. Medan Merdeka Timur No. 1A, Jakarta, Indonesia",-6.1778806,106.8324489,Qurna West,Indonesia,Asia,https://www.pertamina.com/landing/images/logo.png
Petoro AS,"Forusbeen 50, 4035 Stavanger, Norway",58.8904932,5.7186889,"Johan Sverdrup,Troll",Norway,Europe,https://www.petoro.no/s/petoro2019/profile/petroro_logo_blue072.svg?w=192
Petro-Hunt,"USA, Washington D.C.",38.9071923,-77.0368707,"Bakken Shale,PRB Tight Oil",United States,North America,
Petroleos Sudamericanos SA,"Av. Eduardo Madero 900  Piso 24°, C1106ACV, Buenos Aires, Argentina",-34.597269,-58.37028480000001,Vaca Muerta Shale,Argentina,South America,
Petroliam Nasional Berhad (Petronas),"Malaysia, Kuala Lumpur",3.1319197,101.6840589,"Halfayah,South Pars (Phases 2-3) dry gas",Malaysia,Asia,https://www.petronas.com/themes/custom/petronas/images/petronas-logo-dark.svg
Petroquest Energy,"USA, Washington D.C.",38.9071923,-77.0368707,Haynesville/Bossier Shale,United States,North America,
Petroquimica Comodoro Rivadavia SA,"Argentina, Buenos Aires",-34.6036844,-58.3815591,Vaca Muerta Shale,Argentina,South America,
Petróleo Brasileiro SA – Petrobras,"Avenida República do Chile, 65 - Centro, Rio de Janeiro - RJ, Brazil",-22.9100896,-43.1785863,"Buzios (x-Franco),Libra,Lula (X-Tupi),Mero (Libra NW)",Brazil,South America,https://petrobras.com.br/lumis-theme/br/com/petrobras/website/theme/petrobras-website/assets/img/logo.svg
Petróleos Mexicanos (PEMEX),"Av. Marina Nacional 329, Col. Petróleos Mexicanos, 11311 Mexico City, Mexico",19.441126,-99.1761256,"Ku-Maloob-Zaap Project,Yucatan Platform Offshore",Mexico,North America,
Pioneer Natural Resources Co,"777 Hidden Ridge, Irving, TX 75038, USA",32.8773669,-96.9564878,Permian Midland Tight,United States,North America,
Pluspetrol SA,"Argentina, Buenos Aires",-34.6036844,-58.3815591,Vaca Muerta Shale,Argentina,South America,
Point Energy Partners Petro,"USA, Washington D.C.",38.9071923,-77.0368707,Permian Delaware Tight,United States,North America,
President Petroleum SA,"PENN 1, 1 Pennsylvania Plaza # 2501, New York, NY 10119, USA",0.0,0.0,Vaca Muerta Shale,,,
Prime Operating Company,"5400 N Grand Blvd Ste 450, Oklahoma City, Oklahoma 73112-5552, USA",35.5258946,-97.5760234,Permian Midland Tight,United States,North America,
Private Resources Limited,,0.0,0.0,MHU Coal Mine,,,
Private individuals,,0.0,0.0,Beisky-Zapadniy Coal Mine,,,
Pré-Sal Petróleo S.A.,"Rua Lauro Müller, 116, Sala 2301, Rio de Janeiro, Brazil",-22.9569089,-43.1761858,Lula (X-Tupi),Brazil,South America,
Public Power Corporation of Greece S.A,"30, Halkokondyli Str., 104 32 Athens, Greece",37.9861844,23.7289647,West Macedonia Lignite Centre (WMLC),Greece,Europe,
QCoal,"Level 8, 175 Eagle Street, Brisbane, QLD 4000, Australia",-27.4657999,153.0309008,Byerwen Coal Mine,Australia,Oceania,
QH Oil Investments LLC,"Moscow, Russia",55.755826,37.6173,Samotlorneftegaz (TNK-BP),Russia,Europe,
QatarEnergy,"P.O. Box 22666, Doha, Qatar",25.2854473,51.53103979999999,"North Field,QatarGas 1 LNG T1-T3,QatarGas LNG T12-T13 (NFE-South),QatarGas LNG T8-T11 (NFE-East),Qatargas 2 LNG T4-T5,Rasgas 2 LNG T3-T5,Rasgas 3 LNG T6-T7",Qatar,Asia,https://fr.wikipedia.org/wiki/Qatar_Energy#/media/Fichier:Qatar_Petroleum.jpg
Qatargas,"Ras Laffan Industrial City, Doha, Qatar",25.8827849,51.526945,Barzan,Qatar,Asia,
R. Lacy Services,"4100 Troup Hwy, Tyler, Texas, United States",32.3049947,-95.2692602,Haynesville/Bossier Shale,United States,North America,
RWE AG,"Opernplatz 1, 45128 Essen, Germany",51.44742979999999,7.0140311,"Garzweiler Coal Mine,Hambach Coal Mine",Germany,Europe,https://fr.wikipedia.org/wiki/RWE#/media/Fichier:RWE_Logo_2020.svg
Range Resources Appalachia,"Studio F8, Battersea Studios, 80 Silverthorne Rd, Nine Elms, London SW8 3HE, UK",51.47211799999999,-0.1455953,Marcellus Shale,United Kingdom,Europe,
Rashtriya Ispat Nigam (RINL),"Administrative Building, Visakhapatnam Steel Plant, Visakhapatnam, India",17.6345641,83.1970511,Zambezi Coal Mine,India,Asia,
Ratio Petroleum,"18 Giborei Israel St., Netanya, Israel",32.082057,34.8434887,Leviathan,Israel,Asia,
Rebellion Energy,"302 Reconciliation Way, Tulsa, OK 74120, USA",36.1594442,-95.9896383,PRB Tight Oil,United States,North America,
Recoil Resources Operating,"201 Sutherland Ave, Poth, TX 78147, USA",29.07190989999999,-98.0824556,Eagle Ford Shale,United States,North America,
Reliance Power Ltd,"3rd Floor, Maker Chambers IV, 222, Nariman Point, Mumbai, India",18.9248307,72.8230219,Moher Amlohri Coal Mine,India,Asia,
Renos Land & Minerals Company,"210 Park Avenue, Suite 900,. Oklahoma City, OK, USA",35.4685386,-97.5173246,PRB Tight Oil,United States,North America,
Repsol SA,"Calle Méndez Álvaro, 44, 28045 Madrid, Spain",40.3976235,-3.6846091,"Austin Chalk Tight,El Sharara,Marcellus Shale,Orinoco Joint Ventures",Spain,Europe,
Resource Generation Australia,"Level 2, 267 St Georges Terrace, Perth, Western Australia 6000",-31.9527166,115.8491007,Boikarabelo Coal Mine,Australia,Oceania,
Ring Energy Inc,"1726 Cole Blvd, Suite 200, Lakewood, CO, United States",39.7375879,-105.1576026,Permian Midland Tight,United States,North America,
Rio Oil And Gas (Permian),"3 Waterway Square Pl Suite 500, The Woodlands, TX 77380, USA",30.160793,-95.4561392,Permian Delaware Tight,United States,North America,
RioZim,"1 Kenilworth Rd, Newlands, Harare, Zimbabwe",-17.807955,31.0758792,Sengwe Colliery,Zimbabwe,Africa,
Rockcliff Energy Operating,"717 Texas Ave Suite 1900, Houston, TX 77002, USA",29.7616891,-95.3642277,Haynesville/Bossier Shale,United States,North America,
Rockies Resources Holdings,"12136 W Bayaud Ave, Lakewood, CO 80228, USA",39.71318,-105.1371796,PRB Tight Oil,United States,North America,
Rosneftegaz AO,"Naberezhnaya Sofiiskaya, Dom 26/1Str1, Moscow",55.7483346,37.6214227,"Samotlorneftegaz (TNK-BP),Yuganskneftegaz",Russia,Europe,
Rothe Investments,"Le Cap, South Africa",-33.9248685,18.4240553,Greater Soutpansberg Coal Project,South Africa,Africa,
Russian Coal,"Moscow, Russia",55.755826,37.6173,"Erkovetskiy Coal Mine,Pereyaslovskiy Coal Mine",Russia,Europe,https://www.ruscoal.com/wp-content/themes/ruscoal-neo/img/logo-en.png
Russian Federation Agency for State Property Management,"ul. Bolshaya Tatarskaya 35, Moscow, Russia",55.7374962,37.6369929,Samotlorneftegaz (TNK-BP),Russia,Europe,
Russkaya Energiya,"Moscow, Russia",55.755826,37.6173,Usinsk-1 Coal Mine,Russia,Europe,
Rutek Alliance,Luxembourg,49.815273,6.129582999999999,Arshanovsky Coal Mine,Luxembourg,Europe,
SM Energy Co,"1775 Sherman St, Suite 1200, Denver, CO, United States",39.7445109,-104.9851612,Austin Chalk Tight,United States,North America,
Sabinal Energy Operating LLC,"1780 Hughes Landing Blvd, Suite 1200 The Woodlands, TX 77380, USA",30.1736695,-95.4697027,Permian Midland Tight,United States,North America,
Samruk-Energo,"55/8, Kabanbay Batyr Avenue, Nur-Sultan, Kazakhstan",51.14470859999999,71.42259030000001,Bogatyr Coal Mine,Kazakhstan,Asia,
Samson Exploration,USA,37.09024,-95.712891,DJ Basin Tight Oil,United States,North America,
Sanguine Gas Exploration,"124 East Fourth Street Tulsa, OK 74103 United States",36.152969,-95.9884216,Meramec Shale,United States,North America,
Saudi Arabian Oil Company (Saudi Aramco),"Dhahran, Eastern Province, Saudi Arabia",26.2361248,50.0393017,"Abqaiq,Berri,Ghawar Ain Dar N,Ghawar Ain Dar S,Ghawar Haradh,Ghawar Hawiyah,Ghawar Shedgum,Ghawar Uthmaniyah,Khafji,Khurais project,Khursaniyah,Manifa (redevelop),Marjan,Qatif project,Safaniya,Safaniya YTF Concession,Shaybah,Zuluf",Saudi Arabia,Asia,https://www.aramco.com/images/affiliateLogo.png
Scout Energy Management,"Dallas, Texas, United States",32.7766642,-96.7969879,Barnett Shale,United States,North America,
Seriti,"Building 8, 90 Rivonia Rd, Sandton, Johannesburg, South Africa",-26.111623,28.053943,New Largo Coal Mine,South Africa,Africa,
Severstal-Resource,"Cherepovets, Vologda Oblast, Russia",59.132333,37.9091811,Ulug-Khem Project,Russia,Europe,
Shaanxi Coal and Chemical Industry Group Co Ltd,"No. 1, Yanta Road, Yanta District, Xi'an, Shaanxi, China",34.21824,108.94663,"Dafosi Coal Mine,Fengjiata Coal Mine,Guojiawan Coal Mine,Hongliulin Coal Mine,Huangling No.2 Coal Mine,Mengcun Coal Mine,Ningtiaota Coal Mine,Sandaogou Coal Mine,Shaanxi Caojiatan Coal Mine,Xiaobaodang No.1 Coal Mine,Xiaobaodang No.2 Coal Mine,Xiaozhuang Coal Mine,Zhangjiamao Coal Mine",China,Asia,http://www.shccig.com/images/logo.png
Shaanxi Financial Holding Group,"Beijing, China",39.904211,116.407395,Shaanxi Caojiatan Coal Mine,China,Asia,
Shaanxi Investment Group Co Ltd,"No. 1, Yanta Road, Yanta District, Xi'an, Shaanxi, China",34.21824,108.94663,"Dafosi Coal Mine,Fengjiata Coal Mine,Xiaobaodang No.1 Coal Mine,Xiaobaodang No.2 Coal Mine,Zhaoshipan Coal Mine",China,Asia,https://s3-us-west-2.amazonaws.com/cbi-image-service-prd/modified/0adffb02-b5c9-411f-b1f2-89f7b0b3c66d.png
Shaanxi Yanchang Petroleum Group Co Ltd,"No. 1, Yanta Road, Yanta District, Xi'an, Shaanxi, China",34.21824,108.94663,"Hanglaiwan Coal Mine,Jinjitan Coal Mine,Xiwan Surface Coal Mine",China,Asia,
Shaanxi Youser Group,"Beijing, China",39.904211,116.407395,Hanglaiwan Coal Mine,China,Asia,
Shaanxi Yulin Energy Group Co Ltd,"China, Beijing",39.904211,116.407395,"Guojiatan Coal Mine,Hongliulin Coal Mine,Yushuwan Coal Mine,Zhaoshipan Coal Mine",China,Asia,https://syeie.com/images/logo.jpg
Shandong Energy Co Ltd,"No. 66, Lishan Road, Jinan, Shandong, China",36.64586,117.03614,"Changcheng No.3 Coal Mine,Gaojiabao Coal Mine,Jinjitan Coal Mine,Shilawusu Coal Mine,West Well of Faer Second Coal Mine,Xinwen Ili No.1 Coal Mine,Yangjiacun Coal Mine,Yili No.4 Coal Mine,Yingpanhao Coal Mine",China,Asia,http://www.shandong-energy.com/static/en/images/logo.png
Shandong First Geological and Mineral Exploration Institute,"Beijing, China",39.904211,116.407395,Taohe Coal Mine,China,Asia,
Shandong Lutai Holding Group,"Beijing, China",39.904211,116.407395,Baiyanghe Coal Mine,China,Asia,
Shanghai Chengrui Investment Company,"Beijing, China",39.904211,116.407395,Qingchunta Coal Mine,China,Asia,
Shanghai Electric Holding Group Co Ltd,,0.0,0.0,Thar Coal Mine,,,
Shanghai Huayi Group,"Shanghai, China",31.230416,121.473701,Shilawusu Coal Mine,China,Asia,
Shanghua Investment Company,,0.0,0.0,Yuwang No.1 Coal Mine,,,
Shanxi Boda Group,"Beijing, China",39.904211,116.407395,Wenjiazhuang Coal Mine,China,Asia,
Shanxi Chuangrei New Energy Investment Company,"Beijing, China",39.904211,116.407395,Boli Coal Mine,China,Asia,
Shanxi Coking Coal Group Co Ltd,"Taiyuan, Shanxi, China",37.8705899,112.55067,"Pangpangta Coal Mine,Shaqu No.1 Coal Mine,Wangjialing Coal Mine,Zhong Yu Coal Mine",China,Asia,http://subsites.chinadaily.com.cn/shanxi/att/20180823/1535012009426088486.png
Shanxi Dubao New Energy Group,"Beijing, China",39.904211,116.407395,Xiaojiawa Coal Mine,China,Asia,
Shanxi Huayang Group New Energy Company,"Beijing, China",39.904211,116.407395,Boli Coal Mine,China,Asia,
Shanxi Juhuang Century Investment Company,"Beijing, China",39.904211,116.407395,Longwan Coal Mine,China,Asia,
Shanxi Provincial Coal Industry Agency Service Center,"Beijing, China",39.904211,116.407395,Wenjiazhuang Coal Mine,China,Asia,
Shanxi Tangrong Investment Company,"Beijing, China",39.904211,116.407395,Xiaojiawa Coal Mine,China,Asia,
Shanxi Yuedian Energy,"Beijing, China",39.904211,116.407395,Suancigou Coal Mine,China,Asia,
Shanxi Yujin Trading Company,"Beijing, China",39.904211,116.407395,Longwan Coal Mine,China,Asia,
Shanxi Zhongbo Real Estate Development Company,"Beijing, China",39.904211,116.407395,Hongqingliang Coal Mine,China,Asia,
Shelby Boswell Operator,"712 MAIN ST SUITE 1300. HOUSTON, TX 77002, USA",29.7588659,-95.363778,Haynesville/Bossier Shale,United States,North America,
Shell PLC,"Shell Centre, London, SE1 7NA, United Kingdom",51.5039817,-0.1168152,"Athabasca Oil Sands Project,Karachaganak,Kashagan,Libra,Lula (X-Tupi),Mero (Libra NW),North Field,Troll,Vaca Muerta Shale",United Kingdom,Europe,https://fr.wikipedia.org/wiki/Shell_(entreprise)#/media/Fichier:Shell_logo.svg
Shendong Tianlong Group,"Beijing, China",39.904211,116.407395,Inner Mongolia Erlintu Coal Mine,China,Asia,
Shenergy Group Co Ltd,"No. 2, Lane 728, Zhangyang Road, Pudong New Area, Shanghai, China",31.2367942,121.5458768,"Hulusu Coal Mine,Menkeqing Coal Mine",China,Asia,
Shenmu City State-Owned Assets Operation Co,"China, Beijing",39.904211,116.407395,"Hongliulin Coal Mine,Ningtiaota Coal Mine,Shaanxi Caojiatan Coal Mine,Zhangjiamao Coal Mine",China,Asia,
Shenmu Coal Company,"Beijing, China",39.904211,116.407395,Yushuwan Coal Mine,China,Asia,
Shenmu Taide Energy Investment Company,"Beijing, China",39.904211,116.407395,Inner Mongolia Erlintu Coal Mine,China,Asia,
Sheridan Production Company,"1360 Post Oak Blvd., Suite 2500. Houston, TX 77056, USA",29.7531353,-95.4620976,"Haynesville/Bossier Shale,Permian Delaware Tight,Permian Midland Tight",United States,North America,
Shougang Group Co Ltd,"1 Wenxing Street, Qian'an, Hebei, China",39.9983599,118.70073,"Gaojialiang No.1 Coal Mine,Hongqingliang Coal Mine",China,Asia,
Siberian Business Union-Coal (SBU),"Russia, Moscow",55.755826,37.6173,"Listvianskaya Coal Mine,Pervomaisky Coal Mine,Shurapskaya Coal Mine",Russia,Europe,
SilverBow Resources Inc,"Houston Texas, USA",29.7604267,-95.3698028,Eagle Ford Shale,United States,North America,
Slawson Exploration Company,USA,37.09024,-95.712891,Bakken Shale,United States,North America,
Snyder Bros,USA,37.09024,-95.712891,Marcellus Shale,United States,North America,
Sojitz Corp,"1 Chome-20-2 Akasaka, Minato City, Tokyo 107-0052, Japan",35.6692065,139.7428494,Wilton and Fairhill Coal Projects,Japan,Asia,
Sonatrach SPA,"Djenane El Malik, Hydra, Algiers, Algeria",36.7407532,3.0475889,"Hassi Messaoud,Hassi R'Mel (Domestic)",Algeria,Africa,https://sonatrach.com/img/header/sonatrach.png
Southwestern Energy Co,"10000 Energy Dr, Spring, TX, United States",30.097996,-95.4367082,"Marcellus Shale,Utica Shale",United States,North America,
Spur Energy Partners,"Houston Texas, USA",29.7604267,-95.3698028,Permian Delaware Tight,United States,North America,
Stanmore Resources,"Level 7, 333 Adelaide Street, Brisbane QLD 4000, Australia",-27.4654671,153.0292085,Wards Well Coal Mine,Australia,Oceania,
State Grid Corp of China,"No. 86, West Chang'an Street, Xicheng District, Beijing, China",39.9073644,116.3857362,"Changcheng No.3 Coal Mine,Jinjie Coal Mine",China,Asia,
State Power Investment Corp (SPIC),"China, Beijing",39.904211,116.407395,Baiyinhua No.3 Surface Mine,China,Asia,
Steel Authority of India (SAIL),"Ispat Bhawan, Lodi Road, New Delhi 110003, India",28.5924,77.23675,Zambezi Coal Mine,India,Asia,
Steward Energy,"Texas, USA",31.9685988,-99.9018131,Permian Midland Tight,United States,North America,
Suncor Energy Inc,"150 6 Ave SW, Calgary, AB T2P 3E3, Canada",51.047918,-114.0644613,"Athabasca Oil Sands Project,Syncrude Mildred Lake/Aurora",Canada,North America,
Surge Operating,"Texas, USA",31.9685988,-99.9018131,Permian Midland Tight,United States,North America,
Surgutneftegas,"1 Energetikov Street, Surgut, Russia",61.2545849,73.39616989999999,West Siberia Offshore,Russia,Europe,
TRP Operating,"Houston Texas, USA",29.7604267,-95.3698028,Permian Midland Tight,United States,North America,
Talbot Group,"Washingthon, USA",47.7510741,-120.7401386,Revuboe Coal Mine,United States,North America,
Tall City Operations,"Texas, USA",31.9685988,-99.9018131,Permian Delaware Tight,United States,North America,
Tatneft,"75 Lenin Street, Almetyevsk, Russia",54.897557,52.286862,Romashkino,Russia,Europe,
Tebian Electric Apparatus (TBEA),"Xinjiang, China",43.7934299,87.6271,Jiangjun Gebi No.2 Coal Mine,China,Asia,
Teck Resources Ltd,"Suite 3300, 550 Burrard Street, Vancouver, BC V6C 0B3, Canada",49.28582340000001,-123.118371,"Athabasca Oil Sands Project,Fording River",Canada,North America,https://www.teck.com/media/pride_RGB_Teck_web-marker_white.svg
Tecpetrol SA,"Buenos Aires, Argentina",-34.6036844,-58.3815591,Vaca Muerta Shale,Argentina,South America,
Tellurian Operating,"Houston Texas, USA",29.7604267,-95.3698028,Haynesville/Bossier Shale,United States,North America,
TerraCom Resources,"Level 3, 133 Mary Street, Brisbane, QLD 4000, Australia",-27.4712333,153.0288827,Bernice-Cygnus Coal Mine,Australia,Oceania,
Texas American Resources Company,"Texas, USA",31.9685988,-99.9018131,Eagle Ford Shale,United States,North America,
Thungela Resources Ltd,"South Africa, Pretoria",-25.7478676,28.2292712,Ensham Coal Mine,South Africa,Africa,
Tianjin Energy Investment Co Ltd,"Tianjin, China",39.0850999,117.19937,Shengli East No.2 Coal Mine,China,Asia,
Tibet Hengyisheng Investment Company,"Beijing, China",39.904211,116.407395,Dalaihushuo Coal Mine,China,Asia,
Titan Exploration,"412 W 15th Street, 11th Floor",40.7418783,-74.0060041,PRB Tight Oil,United States,North America,
Titan Infra Energy PT,"Sona Topas Tower, Level 25, Jl. Jend. Sudirman Kav. 26, Jakarta, Indonesia",-6.2070754,106.8222951,GAM Coal Mine,Indonesia,Asia,
TotalEnergies SE,"2 Place Jean Millier, 92400 Courbevoie, France",48.9214838,2.2720435,"Area 1 LNG (T1&T2),Area-1 Future Phases,Athabasca Oil Sands Project,Dolphin,El Sharara,Halfayah,Johan Sverdrup,Libra,Mero (Libra NW),North Field,Qatargas 2 LNG T4-T5,Shtokman,South Pars (Phases 2-3) dry gas,Tambey Zone (Yamal Megaproject),Troll,Umm Shaif/Nasr,Vaca Muerta Shale",France,Europe,https://totalenergies.com/themes/custom/totalenergies_com/dist/img/logo_totalenergies.png
Tribune Resources,Australia,-25.274398,133.775136,Marcellus Shale,Australia,Oceania,
Trinity Operating (USG),"Houston Texas, USA",29.7604267,-95.3698028,"Austin Chalk Tight,Haynesville/Bossier Shale",United States,North America,
True Oil,USA,37.09024,-95.712891,PRB Tight Oil,United States,North America,
Tuva Energy Industrial Company,"Moscow, Russia",55.755826,37.6173,Elegest Coal Mine,Russia,Europe,
Unit Corp,"Texas, USA",31.9685988,-99.9018131,Meramec Shale,United States,North America,
United Company RUSAL,"44 Beregovaya Street, Krasnoyarsk, Russia",55.99538099999999,92.824648,Bogatyr Coal Mine,Russia,Europe,
Ural Mining Metallurgical Company,"Verkhnyaya Pyshma, Sverdlovsk Oblast, Russia",56.974633,60.5675988,Taldinsky Coal Mine,Russia,Europe,
Uttar Pradesh Rajya Vidyut,"Shakti Bhawan, 14 Ashok Marg, Lucknow, Uttar Pradesh, India",26.8507088,80.9490742,Saharpur Jamarpani,India,Asia,
Valiant Resources,"Canberra, Australia",-35.2809368,149.1300092,Hutton Coal Mine,Australia,Oceania,
Verdad Resources,USA,37.09024,-95.712891,DJ Basin Tight Oil,United States,North America,
Verdun Oil & Gas,"Texas, USA",31.9685988,-99.9018131,"Austin Chalk Tight,Eagle Ford Shale",United States,North America,
Vermilion Energy Inc,"3500, 520 - 3rd Avenue SW, Calgary, Canada",51.0508429,-114.0720534,PRB Tight Oil,Canada,North America,
Virtex Operating Company,"Texas, USA",31.9685988,-99.9018131,Eagle Ford Shale,United States,North America,
Vista Oil & Gas Argentina SAU,"Argentina, Buenos Aires",-34.6036844,-58.3815591,Vaca Muerta Shale,Argentina,South America,
Walsh Petroleum,"Texas, USA",31.9685988,-99.9018131,Permian Midland Tight,United States,North America,
White Knight Production,USA,37.09024,-95.712891,Barnett Shale,United States,North America,
White Rock Oil & Gas,USA,37.09024,-95.712891,Bakken Shale,United States,North America,
Wintershall Dea GmbH,"Buenos Aires, Argentine",-34.6036844,-58.3815591,Vaca Muerta Shale,Argentina,South America,
Wold Energy Partners,USA,37.09024,-95.712891,PRB Tight Oil,United States,North America,
Wutongshu Investment Platform Co.,"Beijing, China",39.904211,116.407395,Tambey Zone (Yamal Megaproject),China,Asia,
Xin Jiang Guang Hui Industry Investment Group Co Ltd,"Beijing, China",39.904211,116.407395,Baishihu Surface Mine,China,Asia,
Xinjiang Changyuan Water Group,"Beijing, China",39.904211,116.407395,Wucaiwan No.1 Coal Mine,China,Asia,
Xinjiang Energy Group,"Beijing, China",39.904211,116.407395,"Shitoumei No.1 Coal Mine,Wucaiwan No.1 Coal Mine,Wucaiwan No.1 Surface Mine",China,Asia,http://www.xjnyjt.cn/images/logo.png
Xinjiang Joinworld Company,"Beijing, China",39.904211,116.407395,Jiangjun Gebi No.2 Coal Mine,China,Asia,
Xinjiang Production and Construction Corps,"Beijing, China",39.904211,116.407395,Baishihu Surface Mine,China,Asia,
Xinjiang Xinhua Hydropower Investment Company,"Beijing, China",39.904211,116.407395,Wucaiwan No.1 Coal Mine,China,Asia,
Xin’ao Holding Investment Company,,0.0,0.0,Wangjiata Coal Mine,,,
Xuzhou Coal Mining Group,"Xuzhou, Jiangsu, China",34.2043999,117.28577,Xinjiang Hongshan Coal Mine,China,Asia,
YPF SA,"Buenos Aires, Argentina",-34.6036844,-58.3815591,Vaca Muerta Shale,Argentina,South America,
Yanchang Oil and Minerals Administration Hengshan Oil Drilling and Production Company,"Beijing, China",39.904211,116.407395,Yushuwan Coal Mine,China,Asia,
Yang Quan Coal Industry Group,"Yangquan, Shanxi, China",37.8566799,113.58047,Wenjiazhuang Coal Mine,China,Asia,
Yangcheng County Yangtai Group Industrial Co Ltd,"China, Beijing",39.904211,116.407395,Longwan Coal Mine,China,Asia,
Yankuang Energy,"No. 298, Fushan South Road, Zoucheng, Shandong, China",35.39561,116.95089,"Hunter Valley North Coal Mine,Hunter Valley South Coal Mine",China,Asia,
Yichang Caiyuan Investment and Management Company,"Beijing, China",39.904211,116.407395,Wucaiwan No.1 Surface Mine,China,Asia,
Yichang Xinfa Industry Investment Company,"Beijing, China",39.904211,116.407395,Wucaiwan No.1 Surface Mine,China,Asia,
Yildirim Holding AS,"Barbaros Mah. Halk Caddesi, Yıldırım Tower, No: 17, Istanbul, Turkey",40.991,29.10179,San Juan Coal Mine,Turkey,Asia,
Yima Coal Industry Group,"Beijing, China",39.904211,116.407395,Hongshaquan No.1 Coal Mine,China,Asia,
Yulin City Finance Investment Management Company,"Beijing, China",39.904211,116.407395,Zhaoshipan Coal Mine,China,Asia,
Yulin City Yuyang District Energy Investment Company,"Beijing, China",39.904211,116.407395,Shaanxi Caojiatan Coal Mine,China,Asia,
Yulin State-Owned Asset Operation and Management Company,"Beijing, China",39.904211,116.407395,Shaanxi Caojiatan Coal Mine,China,Asia,
Yulin State-Owned Capital Operation and Management Company,"Beijing, China",39.904211,116.407395,Ningtiaota Coal Mine,China,Asia,
Yulin Yuyang Coal Company,"Beijing, China",39.904211,116.407395,Yushuwan Coal Mine,China,Asia,
Yulin Yuyang District Energy Investment Company,"Beijing, China",39.904211,116.407395,Xiaojihan Coal Mine,China,Asia,
Yuling Mining Group,"Beijing, China",39.904211,116.407395,Xiaojihan Coal Mine,China,Asia,
Zarvona Energy,USA,37.09024,-95.712891,Austin Chalk Tight,United States,North America,
Zavanna,USA,37.09024,-95.712891,Bakken Shale,United States,North America,
Zhejiang Provincial Energy Group Co Ltd,"No. 1, Xiaoying Road, Hangzhou, Zhejiang, China",30.08971,120.06194,Yili No.4 Coal Mine,China,Asia,
Zhejiang Shenglong Industrial Company,"Beijing, China",39.904211,116.407395,Wucaiwan No.1 Surface Mine,China,Asia,
Zhejiang Xinhu Group Holding Company,"Beijing, China",39.904211,116.407395,Wucaiwan No.1 Surface Mine,China,Asia,
